NORAD_CAT_ID,OBJECT_NAME,OBJECT_TYPE,EPOCH,MEAN_MOTION,ECCENTRICITY,INCLINATION,RA_OF_ASC_NODE,ARG_OF_PERICENTER,MEAN_ANOMALY,BSTAR,MEAN_MOTION_DOT,MEAN_MOTION_DDOT,TLE_LINE0,TLE_LINE1,TLE_LINE2,SEMIMAJOR_AXIS,PERIOD,APOGEE,PERIGEE,DECAYED
55423.0,STARLINK-5068,PAYLOAD,2024-05-17 04:32:15,14.98342497,0.0002451,69.9996,312.4184,275.7546,84.3334,-9.2559e-05,-1.197e-05,0.0,0 STARLINK-5068,1 55423U 23014AJ  24138.18907158 -.00001197  00000-0 -92559-4 0  9990,2 55423  69.9996 312.4184 0002451 275.7546  84.3334 14.98342497 71532,6950.154,96.106,573.723,570.316,0.0
55423.0,STARLINK-5068,PAYLOAD,2024-05-17 12:32:56,14.98336417,0.0002388,69.9991,311.5774,275.8727,84.216,-0.00013034,-1.648e-05,0.0,0 STARLINK-5068,1 55423U 23014AJ  24138.52287457 -.00001648  00000-0 -13034-3 0  9992,2 55423  69.9991 311.5774 0002388 275.8727  84.2160 14.98336417 72524,6950.173,96.107,573.698,570.378,0.0
55423.0,STARLINK-5068,PAYLOAD,2024-05-17 17:21:20,14.9833456,0.0002425,69.9997,311.0727,275.3648,84.7234,-0.0001123,-1.433e-05,0.0,0 STARLINK-5068,1 55423U 23014AJ  24138.72315412 -.00001433  00000-0 -11230-3 0  9995,2 55423  69.9997 311.0727 0002425 275.3648  84.7234 14.98334560 71615,6950.179,96.107,573.729,570.358,0.0
55423.0,STARLINK-5068,PAYLOAD,2024-05-18 12:34:56,14.98338659,0.000282,69.9989,309.0523,272.273,87.8106,-3.2379e-05,-4.79e-06,0.0,0 STARLINK-5068,1 55423U 23014AJ  24139.52426591 -.00000479  00000-0 -32379-4 0  9992,2 55423  69.9989 309.0523 0002820 272.2730  87.8106 14.98338659 71732,6950.166,96.106,573.991,570.071,0.0
55423.0,STARLINK-5068,PAYLOAD,2024-05-18 14:11:04,14.98338972,0.0002723,69.9991,308.8839,269.3532,90.7315,-4.6162e-05,-6.44e-06,0.0,0 STARLINK-5068,1 55423U 23014AJ  24139.59102570 -.00000644  00000-0 -46162-4 0  9996,2 55423  69.9991 308.8839 0002723 269.3532  90.7315 14.98338972 72689,6950.165,96.106,573.923,570.138,0.0
55423.0,STARLINK-5068,PAYLOAD,2024-05-18 20:35:36,14.98341679,0.0002819,69.9995,308.2112,271.7434,88.3402,6.3151e-06,-1.8e-07,0.0,0 STARLINK-5068,1 55423U 23014AJ  24139.85806100 -.00000018  00000-0  63151-5 0  9997,2 55423  69.9995 308.2112 0002819 271.7434  88.3402 14.98341679 72728,6950.157,96.106,573.981,570.063,0.0
55423.0,STARLINK-5068,PAYLOAD,2024-05-19 04:36:17,14.98320862,0.0003376,70.0,307.3689,269.1546,90.9226,1.6719e-05,1.06e-06,0.0,0 STARLINK-5068,1 55423U 23014AJ  24140.19187080  .00000106  00000-0  16719-4 0  9999,2 55423  70.0000 307.3689 0003376 269.1546  90.9226 14.98320862 71836,6950.221,96.108,574.433,569.74,0.0
55423.0,STARLINK-5068,PAYLOAD,2024-05-19 14:13:07,14.98314418,0.0002665,69.9991,306.3588,270.5722,89.5131,-4.0864e-05,-5.8e-06,0.0,0 STARLINK-5068,1 55423U 23014AJ  24140.59244220 -.00000580  00000-0 -40864-4 0  9999,2 55423  69.9991 306.3588 0002665 270.5722  89.5131 14.98314418 72831,6950.241,96.108,573.958,570.254,0.0
55423.0,STARLINK-5068,PAYLOAD,2024-05-20 12:38:58,14.98335047,0.0002882,69.9992,304.0024,269.4127,90.6702,6.5695e-05,6.91e-06,0.0,0 STARLINK-5068,1 55423U 23014AJ  24141.52706911  .00000691  00000-0  65695-4 0  9993,2 55423  69.9992 304.0024 0002882 269.4127  90.6702 14.98335047 72039,6950.177,96.107,574.045,570.039,0.0
55423.0,STARLINK-5068,PAYLOAD,2024-05-20 14:15:06,14.98335916,0.0002854,69.9993,303.8344,269.5251,90.5581,6.8695e-05,7.27e-06,0.0,0 STARLINK-5068,1 55423U 23014AJ  24141.59382844  .00000727  00000-0  68695-4 0  9998,2 55423  69.9993 303.8344 0002854 269.5251  90.5581 14.98335916 72983,6950.175,96.107,574.023,570.056,0.0
55423.0,STARLINK-5068,PAYLOAD,2024-05-20 20:39:38,14.9834226,0.0002846,69.9993,303.1597,267.5226,92.5607,9.3322e-05,1.021e-05,0.0,0 STARLINK-5068,1 55423U 23014AJ  24141.86086250  .00001021  00000-0  93322-4 0  9993,2 55423  69.9993 303.1597 0002846 267.5226  92.5607 14.98342260 72089,6950.155,96.106,573.998,570.042,0.0
55423.0,STARLINK-5068,PAYLOAD,2024-05-21 12:41:00,14.98322855,0.0002548,70.0003,301.4787,259.4313,100.6559,0.00015535,1.761e-05,0.0,0 STARLINK-5068,1 55423U 23014AJ  24142.52847292  .00001761  00000-0  15535-3 0  9998,2 55423  70.0003 301.4787 0002548 259.4313 100.6559 14.98322855 72188,6950.215,96.107,573.851,570.309,0.0
55423.0,STARLINK-5068,PAYLOAD,2024-05-21 14:17:08,14.9832295,0.000256,70.0001,301.3096,258.7668,101.3204,0.00014032,1.581e-05,0.0,0 STARLINK-5068,1 55423U 23014AJ  24142.59523342  .00001581  00000-0  14032-3 0  9993,2 55423  70.0001 301.3096 0002560 258.7668 101.3204 14.98322950 73134,6950.215,96.107,573.859,570.3,0.0
55423.0,STARLINK-5068,PAYLOAD,2024-05-21 20:41:39,14.98330859,0.0002814,69.9993,300.6361,257.614,102.4704,0.00017987,2.054e-05,0.0,0 STARLINK-5068,1 55423U 23014AJ  24142.86226718  .00002054  00000-0  17987-3 0  9998,2 55423  69.9993 300.6361 0002814 257.6140 102.4704 14.98330859 72237,6950.19,96.107,574.011,570.099,0.0
55423.0,STARLINK-5068,PAYLOAD,2024-05-22 11:06:53,14.98330502,0.0002508,70.0007,299.1218,256.2077,103.8803,-7.2442e-05,-9.57e-06,0.0,0 STARLINK-5068,1 55423U 23014AJ  24143.46311467 -.00000957  00000-0 -72442-4 0  9991,2 55423  70.0007 299.1218 0002508 256.2077 103.8803 14.98330502 72323,6950.191,96.107,573.799,570.313,0.0
55423.0,STARLINK-5068,PAYLOAD,2024-05-22 20:43:41,14.98332885,0.0002351,70.0007,298.1114,255.7016,104.3882,-3.9266e-05,-5.61e-06,0.0,0 STARLINK-5068,1 55423U 23014AJ  24143.86367180 -.00000561  00000-0 -39266-4 0  9996,2 55423  70.0007 298.1114 0002351 255.7016 104.3882 14.98332885 73320,6950.184,96.107,573.683,570.415,0.0
55423.0,STARLINK-5068,PAYLOAD,2024-05-23 12:45:01,14.98329718,0.0002487,69.9996,296.4271,267.2463,92.8411,5.5457e-06,-2.7e-07,0.0,0 STARLINK-5068,1 55423U 23014AJ  24144.53127202 -.00000027  00000-0  55457-5 0  9997,2 55423  69.9996 296.4271 0002487 267.2463  92.8411 14.98329718 72489,6950.194,96.107,573.787,570.33,0.0
55423.0,STARLINK-5068,PAYLOAD,2024-05-23 14:21:09,14.98329262,0.0002475,69.9997,296.2588,266.1772,93.9104,7.4639e-06,-4e-08,0.0,0 STARLINK-5068,1 55423U 23014AJ  24144.59803220 -.00000004  00000-0  74639-5 0  9992,2 55423  69.9997 296.2588 0002475 266.1772  93.9104 14.98329262 73438,6950.195,96.107,573.78,570.34,0.0
55423.0,STARLINK-5068,PAYLOAD,2024-05-23 20:45:41,14.98332476,0.0002396,70.0,295.5858,263.7474,96.3412,2.7383e-05,2.34e-06,0.0,0 STARLINK-5068,1 55423U 23014AJ  24144.86506943  .00000234  00000-0  27383-4 0  9991,2 55423  70.0000 295.5858 0002396 263.7474  96.3412 14.98332476 73476,6950.185,96.107,573.715,570.385,0.0
55423.0,STARLINK-5068,PAYLOAD,2024-05-24 12:47:02,14.98330696,0.0002623,69.9996,293.902,260.8098,99.2765,3.5467e-05,3.3e-06,0.0,0 STARLINK-5068,1 55423U 23014AJ  24145.53266889  .00000330  00000-0  35467-4 0  9997,2 55423  69.9996 293.9020 0002623 260.8098  99.2765 14.98330696 72635,6950.191,96.107,573.879,570.233,0.0
55423.0,STARLINK-5068,PAYLOAD,2024-05-24 14:23:10,14.98331172,0.0002757,69.9994,293.7332,264.4123,95.6721,1.2548e-05,5.7e-07,0.0,0 STARLINK-5068,1 55423U 23014AJ  24145.59942927  .00000057  00000-0  12548-4 0  9998,2 55423  69.9994 293.7332 0002757 264.4123  95.6721 14.98331172 73581,6950.189,96.107,573.97,570.138,0.0
55423.0,STARLINK-5068,PAYLOAD,2024-05-24 19:11:34,14.98335774,0.0002633,69.9998,293.2282,260.1601,99.9261,5.3575e-05,5.46e-06,0.0,0 STARLINK-5068,1 55423U 23014AJ  24145.79970460  .00000546  00000-0  53575-4 0  9991,2 55423  69.9998 293.2282 0002633 260.1601  99.9261 14.98335774 73613,6950.175,96.107,573.87,570.21,0.0
55423.0,STARLINK-5068,PAYLOAD,2024-05-25 12:49:04,14.98320686,0.0002876,69.9994,291.3769,265.3341,94.749,-0.00011569,-1.473e-05,0.0,0 STARLINK-5068,1 55423U 23014AJ  24146.53408057 -.00001473  00000-0 -11569-3 0  9990,2 55423  69.9994 291.3769 0002876 265.3341  94.7490 14.98320686 72785,6950.222,96.108,574.086,570.088,0.0
55423.0,STARLINK-5068,PAYLOAD,2024-05-25 14:25:12,14.98320605,0.0002833,69.9995,291.2088,264.1611,95.9225,-0.00011361,-1.448e-05,0.0,0 STARLINK-5068,1 55423U 23014AJ  24146.60084085 -.00001448  00000-0 -11361-3 0  9991,2 55423  69.9995 291.2088 0002833 264.1611  95.9225 14.98320605 73735,6950.222,96.108,574.056,570.118,0.0
55423.0,STARLINK-5068,PAYLOAD,2024-05-26 03:14:16,14.98326507,0.0002841,69.9994,289.8615,265.2716,94.8118,-4.3398e-05,-6.11e-06,0.0,0 STARLINK-5068,1 55423U 23014AJ  24147.13491725 -.00000611  00000-0 -43398-4 0  9990,2 55423  69.9994 289.8615 0002841 265.2716  94.8118 14.98326507 72870,6950.204,96.107,574.043,570.094,0.0
55423.0,STARLINK-5068,PAYLOAD,2024-05-26 14:27:13,14.98331038,0.0003108,69.9991,288.6837,268.6065,91.4738,-1.3052e-05,-2.49e-06,0.0,0 STARLINK-5068,1 55423U 23014AJ  24147.60223404 -.00000249  00000-0 -13052-4 0  9990,2 55423  69.9991 288.6837 0003108 268.6065  91.4738 14.98331038 73889,6950.19,96.107,574.215,569.895,0.0
55423.0,STARLINK-5068,PAYLOAD,2024-05-26 19:15:36,14.98337885,0.0003105,69.9989,288.1783,268.23,91.8504,1.232e-05,5.4e-07,0.0,0 STARLINK-5068,1 55423U 23014AJ  24147.80250844  .00000054  00000-0  12320-4 0  9999,2 55423  69.9989 288.1783 0003105 268.2300  91.8504 14.98337885 72976,6950.169,96.106,574.192,569.875,0.0
55423.0,STARLINK-5068,PAYLOAD,2024-05-27 14:29:13,14.98330471,0.0003044,69.9993,286.1591,266.2439,93.8372,0.0001438,1.623e-05,0.0,0 STARLINK-5068,1 55423U 23014AJ  24148.60362873  .00001623  00000-0  14380-3 0  9994,2 55423  69.9993 286.1591 0003044 266.2439  93.8372 14.98330471 74037,6950.191,96.107,574.172,569.941,0.0
55423.0,STARLINK-5068,PAYLOAD,2024-05-27 19:17:37,14.98333515,0.000301,69.9994,285.6544,266.0732,94.0083,0.00016887,1.923e-05,0.0,0 STARLINK-5068,1 55423U 23014AJ  24148.80390579  .00001923  00000-0  16887-3 0  9997,2 55423  69.9994 285.6544 0003010 266.0732  94.0083 14.98333515 73120,6950.182,96.107,574.139,569.955,0.0
55423.0,STARLINK-5068,PAYLOAD,2024-05-28 14:31:14,14.98334381,0.0002829,70.0,283.6356,256.3469,103.7375,-4.626e-07,-9.8e-07,0.0,0 STARLINK-5068,1 55423U 23014AJ  24149.60502753 -.00000098  00000-0 -46260-6 0  9990,2 55423  70.0000 283.6356 0002829 256.3469 103.7375 14.98334381 74187,6950.179,96.107,574.011,570.078,0.0
